NORAD_CAT_ID,OBJECT_NAME,OBJECT_TYPE,EPOCH,MEAN_MOTION,ECCENTRICITY,INCLINATION,RA_OF_ASC_NODE,ARG_OF_PERICENTER,MEAN_ANOMALY,BSTAR,MEAN_MOTION_DOT,MEAN_MOTION_DDOT,TLE_LINE0,TLE_LINE1,TLE_LINE2,SEMIMAJOR_AXIS,PERIOD,APOGEE,PERIGEE,DECAYED
54772.0,STARLINK-5452,PAYLOAD,2024-08-01 11:58:59,15.08851,0.0001263,53.2169,136.2855,83.5191,276.5945,0.00013153,1.807e-05,0.0,0 STARLINK-5452,1 54772U 22175Q   24214.49930420  .00001807  00000-0  13153-3 0  9998,2 54772  53.2169 136.2855 0001263  83.5191 276.5945 15.08851000 89623,6917.847,95.437,540.585,538.838,0.0
54772.0,STARLINK-5452,PAYLOAD,2024-08-01 23:06:42,15.08839373,0.0001513,53.2166,134.2067,89.4798,270.6367,2.9565e-05,1.83e-06,0.0,0 STARLINK-5452,1 54772U 22175Q   24214.96299524  .00000183  00000-0  29565-4 0  9994,2 54772  53.2166 134.2067 0001513  89.4798 270.6367 15.08839373 91859,6917.882,95.438,540.794,538.701,0.0
54772.0,STARLINK-5452,PAYLOAD,2024-08-02 02:17:28,15.08848373,0.0001491,53.2172,133.6091,89.525,270.5913,9.531e-05,1.23e-05,0.0,0 STARLINK-5452,1 54772U 22175Q   24215.09546748  .00001230  00000-0  95310-4 0  9997,2 54772  53.2172 133.6091 0001491  89.5250 270.5913 15.08848373 89713,6917.855,95.437,540.751,538.688,0.0
54772.0,STARLINK-5452,PAYLOAD,2024-08-02 11:49:46,15.08859313,0.0001485,53.2172,131.8217,79.8514,280.2646,0.00016761,2.382e-05,0.0,0 STARLINK-5452,1 54772U 22175Q   24215.49289658  .00002382  00000-0  16761-3 0  9996,2 54772  53.2172 131.8217 0001485  79.8514 280.2646 15.08859313 89774,6917.821,95.436,540.714,538.659,0.0
54772.0,STARLINK-5452,PAYLOAD,2024-08-02 18:11:21,15.08821018,0.0001641,53.2169,130.6366,85.2636,274.8544,3.6195e-05,2.88e-06,0.0,0 STARLINK-5452,1 54772U 22175Q   24215.75788608  .00000288  00000-0  36195-4 0  9991,2 54772  53.2169 130.6366 0001641  85.2636 274.8544 15.08821018 89814,6917.938,95.439,540.939,538.668,0.0
54772.0,STARLINK-5452,PAYLOAD,2024-08-03 03:43:39,15.08844912,0.0001279,53.2173,128.8504,83.2806,276.8332,9.3988e-06,-1.38e-06,0.0,0 STARLINK-5452,1 54772U 22175Q   24216.15531280 -.00000138  00000-0  93988-5 0  9997,2 54772  53.2173 128.8504 0001279  83.2806 276.8332 15.08844912 89877,6917.865,95.437,540.615,538.846,0.0
54772.0,STARLINK-5452,PAYLOAD,2024-08-03 11:40:34,15.08843902,0.0001662,53.2189,127.3647,95.4489,264.6693,9.6e-05,1.24e-05,0.0,0 STARLINK-5452,1 54772U 22175Q   24216.48651209  .00001240  00000-0  96000-4 0  9998,2 54772  53.2189 127.3647 0001662  95.4489 264.6693 15.08843902 92084,6917.868,95.437,540.883,538.584,0.0
54772.0,STARLINK-5452,PAYLOAD,2024-08-03 22:48:17,15.08835066,0.000173,53.2179,125.2853,90.5107,269.6084,4.3342e-05,4.02e-06,0.0,0 STARLINK-5452,1 54772U 22175Q   24216.95019909  .00000402  00000-0  43342-4 0  9995,2 54772  53.2179 125.2853 0001730  90.5107 269.6084 15.08835066 92157,6917.895,95.438,540.957,538.564,0.0
54772.0,STARLINK-5452,PAYLOAD,2024-08-04 11:31:21,15.08850538,0.0001757,53.2191,122.9024,100.8896,259.2294,2.2792e-05,7.5e-07,0.0,0 STARLINK-5452,1 54772U 22175Q   24217.48010809  .00000075  00000-0  22792-4 0  9996,2 54772  53.2191 122.9024 0001757 100.8896 259.2294 15.08850538 90072,6917.848,95.437,540.929,538.498,0.0
54772.0,STARLINK-5452,PAYLOAD,2024-08-04 21:03:40,15.08835024,0.0001429,53.2187,121.1186,102.38,257.7352,0.00033198,4.999e-05,0.0,0 STARLINK-5452,1 54772U 22175Q   24217.87755034  .00004999  00000-0  33198-3 0  9995,2 54772  53.2187 121.1186 0001429 102.3800 257.7352 15.08835024 90133,6917.896,95.438,540.749,538.772,0.0
54772.0,STARLINK-5452,PAYLOAD,2024-08-04 22:39:03,15.0883594,0.0001395,53.2192,120.821,104.7339,255.3808,0.00036087,5.459e-05,0.0,0 STARLINK-5452,1 54772U 22175Q   24217.94378988  .00005459  00000-0  36087-3 0  9994,2 54772  53.2192 120.8210 0001395 104.7339 255.3808 15.08835940 92306,6917.893,95.438,540.723,538.793,0.0
54772.0,STARLINK-5452,PAYLOAD,2024-08-05 03:25:12,15.08856042,0.0001482,53.2173,119.9304,89.6684,270.4478,0.00033932,5.119e-05,0.0,0 STARLINK-5452,1 54772U 22175Q   24218.14250515  .00005119  00000-0  33932-3 0  9991,2 54772  53.2173 119.9304 0001482  89.6684 270.4478 15.08856042 90179,6917.831,95.437,540.722,538.671,0.0
54772.0,STARLINK-5452,PAYLOAD,2024-08-05 22:29:51,15.08819504,0.0001035,53.2158,116.3643,120.4734,239.636,-0.00015005,-2.674e-05,0.0,0 STARLINK-5452,1 54772U 22175Q   24218.93740632 -.00002674  00000-0 -15005-3 0  9998,2 54772  53.2158 116.3643 0001035 120.4734 239.6360 15.08819504 92455,6917.943,95.439,540.524,539.092,0.0
54772.0,STARLINK-5452,PAYLOAD,2024-08-06 00:05:14,15.08824998,0.0001722,53.2171,116.0641,103.2557,256.8627,-0.00014201,-2.547e-05,0.0,0 STARLINK-5452,1 54772U 22175Q   24219.00364569 -.00002547  00000-0 -14201-3 0  9994,2 54772  53.2171 116.0641 0001722 103.2557 256.8627 15.08824998 90302,6917.926,95.439,540.983,538.6,0.0
54772.0,STARLINK-5452,PAYLOAD,2024-08-06 22:20:39,15.08836315,0.0001599,53.2171,111.9048,107.6563,252.4603,0.00013372,1.841e-05,0.0,0 STARLINK-5452,1 54772U 22175Q   24219.93100924  .00001841  00000-0  13372-3 0  9991,2 54772  53.2171 111.9048 0001599 107.6563 252.4603 15.08836315 92601,6917.892,95.438,540.863,538.65,0.0
54772.0,STARLINK-5452,PAYLOAD,2024-08-07 20:36:02,15.08843296,0.0001565,53.2173,107.7418,124.9973,235.1166,0.00055692,8.587e-05,0.0,0 STARLINK-5452,1 54772U 22175Q   24220.85836657  .00008587  00000-0  55692-3 0  9998,2 54772  53.2173 107.7418 0001565 124.9973 235.1166 15.08843296 92740,6917.87,95.437,540.818,538.653,0.0
54772.0,STARLINK-5452,PAYLOAD,2024-08-08 22:02:12,15.08851905,0.0001187,53.2163,102.9795,109.8058,250.3062,3.3935e-05,2.52e-06,0.0,0 STARLINK-5452,1 54772U 22175Q   24221.91819880  .00000252  00000-0  33935-4 0  9993,2 54772  53.2163 102.9795 0001187 109.8058 250.3062 15.08851905 90748,6917.844,95.437,540.53,538.888,0.0
54772.0,STARLINK-5452,PAYLOAD,2024-08-09 09:09:53,15.08865066,0.0001572,53.2171,100.8995,71.4433,288.673,0.00015443,2.172e-05,0.0,0 STARLINK-5452,1 54772U 22175Q   24222.38186957  .00002172  00000-0  15443-3 0  9993,2 54772  53.2171 100.8995 0001572  71.4433 288.6730 15.08865066 90812,6917.804,95.436,540.756,538.581,0.0
54772.0,STARLINK-5452,PAYLOAD,2024-08-09 20:17:37,15.08838195,0.0001389,53.2175,98.8156,74.5169,285.5976,-1.5671e-05,-5.37e-06,0.0,0 STARLINK-5452,1 54772U 22175Q   24222.84556805 -.00000537  00000-0 -15671-4 0  9996,2 54772  53.2175  98.8156 0001389  74.5169 285.5976 15.08838195 90885,6917.886,95.438,540.712,538.79,0.0
54772.0,STARLINK-5452,PAYLOAD,2024-08-09 21:53:00,15.08838655,0.0001269,53.2172,98.5196,77.103,283.0104,-1.742e-05,-5.65e-06,0.0,0 STARLINK-5452,1 54772U 22175Q   24222.91180758 -.00000565  00000-0 -17420-4 0  9999,2 54772  53.2172  98.5196 0001269  77.1030 283.0104 15.08838655 93055,6917.885,95.438,540.627,538.872,0.0
54772.0,STARLINK-5452,PAYLOAD,2024-08-10 01:03:45,15.08851477,9.6e-05,53.2173,97.9245,89.2765,270.8337,8.6509e-05,1.09e-05,0.0,0 STARLINK-5452,1 54772U 22175Q   24223.04427559  .00001090  00000-0  86509-4 0  9993,2 54772  53.2173  97.9245 0000960  89.2765 270.8337 15.08851477 90911,6917.845,95.437,540.374,539.046,0.0
54772.0,STARLINK-5452,PAYLOAD,2024-08-10 21:43:46,15.08841399,0.0001115,53.2166,94.0593,102.6821,257.4296,3.245e-05,2.29e-06,0.0,0 STARLINK-5452,1 54772U 22175Q   24223.90540134  .00000229  00000-0  32450-4 0  9992,2 54772  53.2166  94.0593 0001115 102.6821 257.4296 15.08841399 91045,6917.876,95.437,540.512,538.97,0.0
54772.0,STARLINK-5452,PAYLOAD,2024-08-11 21:34:34,15.08833405,0.0001124,53.2176,89.596,93.034,267.0781,0.00015534,2.185e-05,0.0,0 STARLINK-5452,1 54772U 22175Q   24224.89900558  .00002185  00000-0  15534-3 0  9997,2 54772  53.2176  89.5960 0001124  93.0340 267.0781 15.08833405 91193,6917.901,95.438,540.543,538.988,0.0
54772.0,STARLINK-5452,PAYLOAD,2024-08-11 23:09:57,15.08842215,0.0001364,53.218,89.3002,88.9043,271.2106,0.00010003,1.305e-05,0.0,0 STARLINK-5452,1 54772U 22175Q   24224.96524388  .00001305  00000-0  10003-3 0  9997,2 54772  53.2180  89.3002 0001364  88.9043 271.2106 15.08842215 91201,6917.874,95.437,540.682,538.795,0.0
54772.0,STARLINK-5452,PAYLOAD,2024-08-12 15:03:47,15.08851952,0.0001469,53.2189,86.3269,111.2574,248.8576,0.00051361,7.898e-05,0.0,0 STARLINK-5452,1 54772U 22175Q   24225.62763722  .00007898  00000-0  51361-3 0  9993,2 54772  53.2189  86.3269 0001469 111.2574 248.8576 15.08851952 93466,6917.844,95.437,540.725,538.693,0.0
54772.0,STARLINK-5452,PAYLOAD,2024-08-12 21:25:20,15.08859681,0.0001305,53.2171,85.1402,93.9931,266.1211,0.00041694,6.357e-05,0.0,0 STARLINK-5452,1 54772U 22175Q   24225.89259277  .00006357  00000-0  41694-3 0  9994,2 54772  53.2171  85.1402 0001305  93.9931 266.1211 15.08859681 91346,6917.82,95.436,540.588,538.782,0.0
54772.0,STARLINK-5452,PAYLOAD,2024-08-13 14:54:35,15.08836791,9.49e-05,53.2193,81.8659,93.7826,266.3274,-8.4419e-05,-1.631e-05,0.0,0 STARLINK-5452,1 54772U 22175Q   24226.62123971 -.00001631  00000-0 -84419-4 0  9992,2 54772  53.2193  81.8659 0000949  93.7826 266.3274 15.08836791 93611,6917.89,95.438,540.412,539.099,0.0
54772.0,STARLINK-5452,PAYLOAD,2024-08-13 21:16:08,15.08799725,3.56e-05,53.2193,80.6766,4.2079,355.8916,-0.00073264,-0.00011915,0.0,0 STARLINK-5452,1 54772U 22175Q   24226.88621486 -.00011915  00000-0 -73264-3 0  9995,2 54772  53.2193  80.6766 0000356   4.2079 355.8916 15.08799725 91492,6918.003,95.44,540.115,539.622,0.0
54772.0,STARLINK-5452,PAYLOAD,2024-08-14 00:26:55,15.0879876,0.00011,53.2182,80.083,83.0126,277.0991,-0.00087982,-0.00014247,0.0,0 STARLINK-5452,1 54772U 22175Q   24227.01869462 -.00014247  00000-0 -87982-3 0  9992,2 54772  53.2182  80.0830 0001100  83.0126 277.0991 15.08798760 91511,6918.006,95.44,540.632,539.11,0.0
54772.0,STARLINK-5452,PAYLOAD,2024-08-14 06:48:28,15.08796911,0.0001408,53.2183,78.8964,90.0295,270.0859,-0.00066451,-0.00010835,0.0,0 STARLINK-5452,1 54772U 22175Q   24227.28366264 -.00010835  00000-0 -66451-3 0  9990,2 54772  53.2183  78.8964 0001408  90.0295 270.0859 15.08796911 93717,6918.012,95.44,540.851,538.903,0.0
